[{"OBJECT_NAME":"ALOS (DAICHI)","OBJECT_ID":"2006-002A","EPOCH":"2026-03-11T21:15:17.330400","MEAN_MOTION":14.69818058,"ECCENTRICITY":8.53e-5,"INCLINATION":98.122,"RA_OF_ASC_NODE":26.83,"ARG_OF_PERICENTER":60.0305,"MEAN_ANOMALY":300.0985,"EPHEMERIS_TYPE":0,"CLASSIFICATION_TYPE":"U","NORAD_CAT_ID":28931,"ELEMENT_SET_NO":999,"REV_AT_EPOCH":7380,"BSTAR":0.00028023,"MEAN_MOTION_DOT":1.624e-5,"MEAN_MOTION_DDOT":0},{"OBJECT_NAME":"H-2A R/B","OBJECT_ID":"2006-002B","EPOCH":"2026-03-11T20:27:50.412384","MEAN_MOTION":15.16472326,"ECCENTRICITY":0.0051895,"INCLINATION":98.2412,"RA_OF_ASC_NODE":218.0623,"ARG_OF_PERICENTER":233.5326,"MEAN_ANOMALY":126.1117,"EPHEMERIS_TYPE":0,"CLASSIFICATION_TYPE":"U","NORAD_CAT_ID":28932,"ELEMENT_SET_NO":999,"REV_AT_EPOCH":9476,"BSTAR":0.00049819,"MEAN_MOTION_DOT":9.961e-5,"MEAN_MOTION_DDOT":0},{"OBJECT_NAME":"RESURS-DK 1","OBJECT_ID":"2006-021A","EPOCH":"2026-03-11T20:23:42.234432","MEAN_MOTION":15.12761411,"ECCENTRICITY":0.0001684,"INCLINATION":69.9325,"RA_OF_ASC_NODE":231.4346,"ARG_OF_PERICENTER":161.0804,"MEAN_ANOMALY":199.0425,"EPHEMERIS_TYPE":0,"CLASSIFICATION_TYPE":"U","NORAD_CAT_ID":29228,"ELEMENT_SET_NO":999,"REV_AT_EPOCH":8785,"BSTAR":0.00020973,"MEAN_MOTION_DOT":3.58e-5,"MEAN_MOTION_DDOT":0},{"OBJECT_NAME":"CZ-4B R/B","OBJECT_ID":"2006-046C","EPOCH":"2026-03-11T17:16:56.404128","MEAN_MOTION":15.16929544,"ECCENTRICITY":0.0031677,"INCLINATION":97.5596,"RA_OF_ASC_NODE":115.6241,"ARG_OF_PERICENTER":259.9282,"MEAN_ANOMALY":99.8377,"EPHEMERIS_TYPE":0,"CLASSIFICATION_TYPE":"U","NORAD_CAT_ID":29507,"ELEMENT_SET_NO":999,"REV_AT_EPOCH":6035,"BSTAR":0.00027759,"MEAN_MOTION_DOT":5.474e-5,"MEAN_MOTION_DDOT":0},{"OBJECT_NAME":"CZ-2C R/B","OBJECT_ID":"2007-010B","EPOCH":"2026-03-11T20:08:43.942272","MEAN_MOTION":14.20247071,"ECCENTRICITY":0.005788,"INCLINATION":98.3979,"RA_OF_ASC_NODE":184.0102,"ARG_OF_PERICENTER":288.2248,"MEAN_ANOMALY":71.2636,"EPHEMERIS_TYPE":0,"CLASSIFICATION_TYPE":"U","NORAD_CAT_ID":31114,"ELEMENT_SET_NO":999,"REV_AT_EPOCH":98002,"BSTAR":9.004e-5,"MEAN_MOTION_DOT":1.54e-6,"MEAN_MOTION_DDOT":0},{"OBJECT_NAME":"COSMO-SKYMED 1","OBJECT_ID":"2007-023A","EPOCH":"2026-03-11T19:17:50.516160","MEAN_MOTION":14.96554412,"ECCENTRICITY":0.0001438,"INCLINATION":97.8878,"RA_OF_ASC_NODE":261.8526,"ARG_OF_PERICENTER":98.8662,"MEAN_ANOMALY":261.2722,"EPHEMERIS_TYPE":0,"CLASSIFICATION_TYPE":"U","NORAD_CAT_ID":31598,"ELEMENT_SET_NO":999,"REV_AT_EPOCH":1522,"BSTAR":0.00038686,"MEAN_MOTION_DOT":4.342e-5,"MEAN_MOTION_DDOT":0},{"OBJECT_NAME":"COSMOS 2428","OBJECT_ID":"2007-029A","EPOCH":"2026-03-11T20:54:10.704672","MEAN_MOTION":14.12946574,"ECCENTRICITY":0.0009196,"INCLINATION":70.9435,"RA_OF_ASC_NODE":198.7647,"ARG_OF_PERICENTER":274.902,"MEAN_ANOMALY":85.1051,"EPHEMERIS_TYPE":0,"CLASSIFICATION_TYPE":"U","NORAD_CAT_ID":31792,"ELEMENT_SET_NO":999,"REV_AT_EPOCH":96440,"BSTAR":4.3336e-5,"MEAN_MOTION_DOT":3.3e-7,"MEAN_MOTION_DDOT":0},{"OBJECT_NAME":"SL-16 R/B","OBJECT_ID":"2007-029B","EPOCH":"2026-03-11T14:55:00.565248","MEAN_MOTION":14.14833845,"ECCENTRICITY":0.0002275,"INCLINATION":70.9759,"RA_OF_ASC_NODE":168.3243,"ARG_OF_PERICENTER":275.9544,"MEAN_ANOMALY":183.5142,"EPHEMERIS_TYPE":0,"CLASSIFICATION_TYPE":"U","NORAD_CAT_ID":31793,"ELEMENT_SET_NO":999,"REV_AT_EPOCH":96564,"BSTAR":8.7644e-5,"MEAN_MOTION_DOT":1.21e-6,"MEAN_MOTION_DDOT":0},{"OBJECT_NAME":"KORONAS-FOTON","OBJECT_ID":"2009-003A","EPOCH":"2026-03-11T13:54:48.122496","MEAN_MOTION":15.43362508,"ECCENTRICITY":0.0011353,"INCLINATION":82.4278,"RA_OF_ASC_NODE":273.9128,"ARG_OF_PERICENTER":143.393,"MEAN_ANOMALY":216.8095,"EPHEMERIS_TYPE":0,"CLASSIFICATION_TYPE":"U","NORAD_CAT_ID":33504,"ELEMENT_SET_NO":999,"REV_AT_EPOCH":94603,"BSTAR":0.00023981,"MEAN_MOTION_DOT":0.00010758,"MEAN_MOTION_DDOT":0},{"OBJECT_NAME":"CZ-2C R/B","OBJECT_ID":"2011-030B","EPOCH":"2026-03-11T20:10:59.680128","MEAN_MOTION":14.81232238,"ECCENTRICITY":0.0052201,"INCLINATION":97.8542,"RA_OF_ASC_NODE":28.0609,"ARG_OF_PERICENTER":345.0697,"MEAN_ANOMALY":75.0266,"EPHEMERIS_TYPE":0,"CLASSIFICATION_TYPE":"U","NORAD_CAT_ID":37731,"ELEMENT_SET_NO":999,"REV_AT_EPOCH":79041,"BSTAR":0.00025311,"MEAN_MOTION_DOT":1.963e-5,"MEAN_MOTION_DDOT":0},{"OBJECT_NAME":"H-2A R/B","OBJECT_ID":"2012-025E","EPOCH":"2026-03-11T20:52:56.099136","MEAN_MOTION":14.95189353,"ECCENTRICITY":0.0043204,"INCLINATION":98.4739,"RA_OF_ASC_NODE":38.0911,"ARG_OF_PERICENTER":307.1184,"MEAN_ANOMALY":52.609,"EPHEMERIS_TYPE":0,"CLASSIFICATION_TYPE":"U","NORAD_CAT_ID":38341,"ELEMENT_SET_NO":999,"REV_AT_EPOCH":74854,"BSTAR":0.00032069,"MEAN_MOTION_DOT":3.519e-5,"MEAN_MOTION_DDOT":0},{"OBJECT_NAME":"SHIJIAN-16 (SJ-16)","OBJECT_ID":"2013-057A","EPOCH":"2026-03-11T20:11:29.551200","MEAN_MOTION":14.92356479,"ECCENTRICITY":0.0015513,"INCLINATION":74.9727,"RA_OF_ASC_NODE":181.0151,"ARG_OF_PERICENTER":106.9355,"MEAN_ANOMALY":253.3535,"EPHEMERIS_TYPE":0,"CLASSIFICATION_TYPE":"U","NORAD_CAT_ID":39358,"ELEMENT_SET_NO":999,"REV_AT_EPOCH":67182,"BSTAR":0.00016585,"MEAN_MOTION_DOT":1.671e-5,"MEAN_MOTION_DDOT":0},{"OBJECT_NAME":"SL-4 R/B","OBJECT_ID":"2014-021B","EPOCH":"2026-03-11T02:56:01.041792","MEAN_MOTION":15.39237531,"ECCENTRICITY":0.00973583,"INCLINATION":51.608,"RA_OF_ASC_NODE":330.2898,"ARG_OF_PERICENTER":108.2387,"MEAN_ANOMALY":252.9222,"EPHEMERIS_TYPE":0,"CLASSIFICATION_TYPE":"U","NORAD_CAT_ID":39679,"ELEMENT_SET_NO":999,"REV_AT_EPOCH":65649,"BSTAR":0.00041035423,"MEAN_MOTION_DOT":0.00018747,"MEAN_MOTION_DDOT":0},{"OBJECT_NAME":"ALOS-2","OBJECT_ID":"2014-029A","EPOCH":"2026-03-11T19:34:09.259680","MEAN_MOTION":14.79513759,"ECCENTRICITY":0.0001432,"INCLINATION":97.9186,"RA_OF_ASC_NODE":169.3811,"ARG_OF_PERICENTER":98.6979,"MEAN_ANOMALY":261.4395,"EPHEMERIS_TYPE":0,"CLASSIFICATION_TYPE":"U","NORAD_CAT_ID":39766,"ELEMENT_SET_NO":999,"REV_AT_EPOCH":63718,"BSTAR":0.00027775,"MEAN_MOTION_DOT":2.025e-5,"MEAN_MOTION_DDOT":0},{"OBJECT_NAME":"YAOGAN-29","OBJECT_ID":"2015-069A","EPOCH":"2026-03-11T21:16:00.255648","MEAN_MOTION":14.82996713,"ECCENTRICITY":0.000173,"INCLINATION":98.0144,"RA_OF_ASC_NODE":99.3214,"ARG_OF_PERICENTER":31.8109,"MEAN_ANOMALY":328.3208,"EPHEMERIS_TYPE":0,"CLASSIFICATION_TYPE":"U","NORAD_CAT_ID":41038,"ELEMENT_SET_NO":999,"REV_AT_EPOCH":55620,"BSTAR":3.6084e-5,"MEAN_MOTION_DOT":2.39e-6,"MEAN_MOTION_DDOT":0},{"OBJECT_NAME":"ASTRO-H (HITOMI)","OBJECT_ID":"2016-012A","EPOCH":"2026-03-11T19:34:17.490144","MEAN_MOTION":15.10023056,"ECCENTRICITY":0.0009756,"INCLINATION":31.0005,"RA_OF_ASC_NODE":342.8301,"ARG_OF_PERICENTER":352.7357,"MEAN_ANOMALY":7.3139,"EPHEMERIS_TYPE":0,"CLASSIFICATION_TYPE":"U","NORAD_CAT_ID":41337,"ELEMENT_SET_NO":999,"REV_AT_EPOCH":55255,"BSTAR":0.00022085,"MEAN_MOTION_DOT":3.777e-5,"MEAN_MOTION_DDOT":0},{"OBJECT_NAME":"HXMT (HUIYAN)","OBJECT_ID":"2017-034A","EPOCH":"2026-03-11T21:12:51.925248","MEAN_MOTION":15.1750088,"ECCENTRICITY":0.003316,"INCLINATION":43.016,"RA_OF_ASC_NODE":4.4737,"ARG_OF_PERICENTER":249.3366,"MEAN_ANOMALY":110.3925,"EPHEMERIS_TYPE":0,"CLASSIFICATION_TYPE":"U","NORAD_CAT_ID":42758,"ELEMENT_SET_NO":999,"REV_AT_EPOCH":48287,"BSTAR":0.00037253,"MEAN_MOTION_DOT":7.477e-5,"MEAN_MOTION_DDOT":0}]
